CTC2_L_00226001-01
1 67941U 26877OL  26037.47792824  .00000000  00000+0  00000-0 0  9997
2 67941  60.0000   0.0000 0000000   0.0000   0.0000 14.24551582    13
CTC2_L_00226001-02
1 67942U 25481WV  26037.47792824  .00000000  00000+0  00000-0 0  9998
2 67942  60.0000   0.0000 0000000   0.0000  90.0000 14.24551582    13
CTC2_L_00226001-03
1 67943U 23680UZ  26037.47792824  .00000000  00000+0  00000-0 0  9998
2 67943  60.0000   0.0000 0000000   0.0000 180.0000 14.24551582    14
CTC2_L_00226001-04
1 67944U 22388KI  26037.47792824  .00000000  00000+0  00000-0 0  9993
2 67944  60.0000   0.0000 0000000   0.0000 270.0000 14.24551582    15
CTC2_L_00226002-01
1 67945U 22120SX  26037.47792824  .00000000  00000+0  00000-0 0  9998
2 67945  60.0000  12.0000 0000000   0.0000  12.0000 14.24551582    13
CTC2_L_00226002-02
1 67946U 25972UG  26037.47792824  .00000000  00000+0  00000-0 0  9997
2 67946  60.0000  12.0000 0000000   0.0000 102.0000 14.24551582    14
CTC2_L_00226002-03
1 67947U 24783BL  26037.47792824  .00000000  00000+0  00000-0 0  9997
2 67947  60.0000  12.0000 0000000   0.0000 192.0000 14.24551582    14
CTC2_L_00226002-04
1 67948U 24188EG  26037.47792824  .00000000  00000+0  00000-0 0  9997
2 67948  60.0000  12.0000 0000000   0.0000 282.0000 14.24551582    15
CTC2_L_00226003-01
1 67949U 23456NV  26037.47792824  .00000000  00000+0  00000-0 0  9995
2 67949  60.0000  24.0000 0000000   0.0000  24.0000 14.24551582    13
CTC2_L_00226003-02
1 67950U 25407LS  26037.47792824  .00000000  00000+0  00000-0 0  9995
2 67950  60.0000  24.0000 0000000   0.0000 114.0000 14.24551582    15
CTC2_L_00226003-03
1 67951U 26631H   26037.47792824  .00000000  00000+0  00000-0 0  9996
2 67951  60.0000  24.0000 0000000   0.0000 204.0000 14.24551582    16
CTC2_L_00226003-04
1 67952U 26429UC  26037.47792824  .00000000  00000+0  00000-0 0  9992
2 67952  60.0000  24.0000 0000000   0.0000 294.0000 14.24551582    16
CTC2_L_00226004-01
1 67953U 25236EW  26037.47792824  .00000000  00000+0  00000-0 0  9998
2 67953  60.0000  36.0000 0000000   0.0000  36.0000 14.24551582    14
CTC2_L_00226004-02
1 67954U 22058JI  26037.47792824  .00000000  00000+0  00000-0 0  9998
2 67954  60.0000  36.0000 0000000   0.0000 126.0000 14.24551582    15
CTC2_L_00226004-03
1 67955U 23918MV  26037.47792824  .00000000  00000+0  00000-0 0  9995
2 67955  60.0000  36.0000 0000000   0.0000 216.0000 14.24551582    16
CTC2_L_00226004-04
1 67956U 24460RC  26037.47792824  .00000000  00000+0  00000-0 0  9999
2 67956  60.0000  36.0000 0000000   0.0000 306.0000 14.24551582    17
CTC2_L_00226005-01
1 67957U 25986U   26037.47792824  .00000000  00000+0  00000-0 0  9994
2 67957  60.0000  48.0000 0000000   0.0000  48.0000 14.24551582    14
CTC2_L_00226005-02
1 67958U 24037OB  26037.47792824  .00000000  00000+0  00000-0 0  9991
2 67958  60.0000  48.0000 0000000   0.0000 138.0000 14.24551582    15
CTC2_L_00226005-03
1 67959U 23591KN  26037.47792824  .00000000  00000+0  00000-0 0  9996
2 67959  60.0000  48.0000 0000000   0.0000 228.0000 14.24551582    16
CTC2_L_00226005-04
1 67960U 26868KR  26037.47792824  .00000000  00000+0  00000-0 0  9998
2 67960  60.0000  48.0000 0000000   0.0000 318.0000 14.24551582    18
CTC2_L_00226006-01
1 67961U 22274OC  26037.47792824  .00000000  00000+0  00000-0 0  9996
2 67961  60.0000  60.0000 0000000   0.0000  60.0000 14.24551582    17
CTC2_L_00226006-02
1 67962U 22207YP  26037.47792824  .00000000  00000+0  00000-0 0  9993
2 67962  60.0000  60.0000 0000000   0.0000 150.0000 14.24551582    18
CTC2_L_00226006-03
1 67963U 25953HO  26037.47792824  .00000000  00000+0  00000-0 0  9995
2 67963  60.0000  60.0000 0000000   0.0000 240.0000 14.24551582    19
CTC2_L_00226006-04
1 67964U 22110ZV  26037.47792824  .00000000  00000+0  00000-0 0  9998
2 67964  60.0000  60.0000 0000000   0.0000 330.0000 14.24551582    10
CTC2_L_00226007-01
1 67965U 25402Q   26037.47792824  .00000000  00000+0  00000-0 0  9996
2 67965  60.0000  72.0000 0000000   0.0000  72.0000 14.24551582    17
CTC2_L_00226007-02
1 67966U 26655VG  26037.47792824  .00000000  00000+0  00000-0 0  9998
2 67966  60.0000  72.0000 0000000   0.0000 162.0000 14.24551582    18
CTC2_L_00226007-03
1 67967U 23037BK  26037.47792824  .00000000  00000+0  00000-0 0  9990
2 67967  60.0000  72.0000 0000000   0.0000 252.0000 14.24551582    19
CTC2_L_00226007-04
1 67968U 22268CY  26037.47792824  .00000000  00000+0  00000-0 0  9996
2 67968  60.0000  72.0000 0000000   0.0000 342.0000 14.24551582    10
CTC2_L_00226008-01
1 67969U 25951SG  26037.47792824  .00000000  00000+0  00000-0 0  9999
2 67969  60.0000  84.0000 0000000   0.0000  84.0000 14.24551582    17
CTC2_L_00226008-02
1 67970U 25786JR  26037.47792824  .00000000  00000+0  00000-0 0  9997
2 67970  60.0000  84.0000 0000000   0.0000 174.0000 14.24551582    19
CTC2_L_00226008-03
1 67971U 25391EL  26037.47792824  .00000000  00000+0  00000-0 0  9990
2 67971  60.0000  84.0000 0000000   0.0000 264.0000 14.24551582    10
CTC2_L_00226008-04
1 67972U 22570FT  26037.47792824  .00000000  00000+0  00000-0 0  9997
2 67972  60.0000  84.0000 0000000   0.0000 354.0000 14.24551582    11
CTC2_L_00226009-01
1 67973U 26384VX  26037.47792824  .00000000  00000+0  00000-0 0  9995
2 67973  60.0000  96.0000 0000000   0.0000  96.0000 14.24551582    18
CTC2_L_00226009-02
1 67974U 23569VP  26037.47792824  .00000000  00000+0  00000-0 0  9998
2 67974  60.0000  96.0000 0000000   0.0000 186.0000 14.24551582    19
CTC2_L_00226009-03
1 67975U 23067EL  26037.47792824  .00000000  00000+0  00000-0 0  9992
2 67975  60.0000  96.0000 0000000   0.0000 276.0000 14.24551582    10
CTC2_L_00226009-04
1 67976U 25391PZ  26037.47792824  .00000000  00000+0  00000-0 0  9995
2 67976  60.0000  96.0000 0000000   0.0000   6.0000 14.24551582    12
CTC2_L_00226010-01
1 67977U 22834PG  26037.47792824  .00000000  00000+0  00000-0 0  9995
2 67977  60.0000 108.0000 0000000   0.0000 108.0000 14.24551582    10
CTC2_L_00226010-02
1 67978U 26244FB  26037.47792824  .00000000  00000+0  00000-0 0  9995
2 67978  60.0000 108.0000 0000000   0.0000 198.0000 14.24551582    10
CTC2_L_00226010-03
1 67979U 24469TX  26037.47792824  .00000000  00000+0  00000-0 0  9993
2 67979  60.0000 108.0000 0000000   0.0000 288.0000 14.24551582    11
CTC2_L_00226010-04
1 67980U 23212L   26037.47792824  .00000000  00000+0  00000-0 0  9990
2 67980  60.0000 108.0000 0000000   0.0000  18.0000 14.24551582    14
CTC2_L_00226011-01
1 67981U 26358DO  26037.47792824  .00000000  00000+0  00000-0 0  9995
2 67981  60.0000 120.0000 0000000   0.0000 120.0000 14.24551582    13
CTC2_L_00226011-02
1 67982U 22269KH  26037.47792824  .00000000  00000+0  00000-0 0  9993
2 67982  60.0000 120.0000 0000000   0.0000 210.0000 14.24551582    14
CTC2_L_00226011-03
1 67983U 22698XC  26037.47792824  .00000000  00000+0  00000-0 0  9990
2 67983  60.0000 120.0000 0000000   0.0000 300.0000 14.24551582    15
CTC2_L_00226011-04
1 67984U 23162DU  26037.47792824  .00000000  00000+0  00000-0 0  9998
2 67984  60.0000 120.0000 0000000   0.0000  30.0000 14.24551582    16
CTC2_L_00226012-01
1 67985U 26282RK  26037.47792824  .00000000  00000+0  00000-0 0  9995
2 67985  60.0000 132.0000 0000000   0.0000 132.0000 14.24551582    13
CTC2_L_00226012-02
1 67986U 22956QL  26037.47792824  .00000000  00000+0  00000-0 0  9990
2 67986  60.0000 132.0000 0000000   0.0000 222.0000 14.24551582    14
CTC2_L_00226012-03
1 67987U 24424PW  26037.47792824  .00000000  00000+0  00000-0 0  9993
2 67987  60.0000 132.0000 0000000   0.0000 312.0000 14.24551582    15
CTC2_L_00226012-04
1 67988U 26842QH  26037.47792824  .00000000  00000+0  00000-0 0  9990
2 67988  60.0000 132.0000 0000000   0.0000  42.0000 14.24551582    16
CTC2_L_00226013-01
1 67989U 22906QL  26037.47792824  .00000000  00000+0  00000-0 0  9998
2 67989  60.0000 144.0000 0000000   0.0000 144.0000 14.24551582    13
CTC2_L_00226013-02
1 67990U 24229BH  26037.47792824  .00000000  00000+0  00000-0 0  9990
2 67990  60.0000 144.0000 0000000   0.0000 234.0000 14.24551582    15
CTC2_L_00226013-03
1 67991U 22096AI  26037.47792824  .00000000  00000+0  00000-0 0  9991
2 67991  60.0000 144.0000 0000000   0.0000 324.0000 14.24551582    16
CTC2_L_00226013-04
1 67992U 26522X   26037.47792824  .00000000  00000+0  00000-0 0  9990
2 67992  60.0000 144.0000 0000000   0.0000  54.0000 14.24551582    17
CTC2_L_00226014-01
1 67993U 26932BP  26037.47792824  .00000000  00000+0  00000-0 0  9996
2 67993  60.0000 156.0000 0000000   0.0000 156.0000 14.24551582    14
CTC2_L_00226014-02
1 67994U 25060MX  26037.47792824  .00000000  00000+0  00000-0 0  9998
2 67994  60.0000 156.0000 0000000   0.0000 246.0000 14.24551582    15
CTC2_L_00226014-03
1 67995U 25031ND  26037.47792824  .00000000  00000+0  00000-0 0  9997
2 67995  60.0000 156.0000 0000000   0.0000 336.0000 14.24551582    16
CTC2_L_00226014-04
1 67996U 24063PZ  26037.47792824  .00000000  00000+0  00000-0 0  9992
2 67996  60.0000 156.0000 0000000   0.0000  66.0000 14.24551582    17
CTC2_L_00226015-01
1 67997U 22549VM  26037.47792824  .00000000  00000+0  00000-0 0  9990
2 67997  60.0000 168.0000 0000000   0.0000 168.0000 14.24551582    14
CTC2_L_00226015-02
1 67998U 26883CH  26037.47792824  .00000000  00000+0  00000-0 0  9996
2 67998  60.0000 168.0000 0000000   0.0000 258.0000 14.24551582    15
CTC2_L_00226015-03
1 67999U 23377QW  26037.47792824  .00000000  00000+0  00000-0 0  9992
2 67999  60.0000 168.0000 0000000   0.0000 348.0000 14.24551582    16
CTC2_L_00226015-04
1 68000U 25066LE  26037.47792824  .00000000  00000+0  00000-0 0  9993
2 68000  60.0000 168.0000 0000000   0.0000  78.0000 14.24551582    10
CTC2_L_00226016-01
1 68001U 23684JH  26037.47792824  .00000000  00000+0  00000-0 0  9998
2 68001  60.0000 180.0000 0000000   0.0000 180.0000 14.24551582    19
CTC2_L_00226016-02
1 68002U 25448OO  26037.47792824  .00000000  00000+0  00000-0 0  9999
2 68002  60.0000 180.0000 0000000   0.0000 270.0000 14.24551582    10
